[{"OBJECT_NAME":"STARLINK-30881","OBJECT_ID":"2023-171X","EPOCH":"2026-03-09T22:00:01.999584","MEAN_MOTION":15.25538753,"ECCENTRICITY":0.00013636,"INCLINATION":42.9995,"RA_OF_ASC_NODE":283.8799,"ARG_OF_PERICENTER":278.8594,"MEAN_ANOMALY":275.7646,"EPHEMERIS_TYPE":0,"CLASSIFICATION_TYPE":"U","NORAD_CAT_ID":58251,"ELEMENT_SET_NO":999,"REV_AT_EPOCH":573,"BSTAR":0.00095026678,"MEAN_MOTION_DOT":0.00024405,"MEAN_MOTION_DDOT":0},{"OBJECT_NAME":"FLOCK 4G-3","OBJECT_ID":"2025-009AG","EPOCH":"2026-03-09T19:14:30.392160","MEAN_MOTION":15.2717931,"ECCENTRICITY":0.00013196,"INCLINATION":97.4062,"RA_OF_ASC_NODE":151.4068,"ARG_OF_PERICENTER":293.2042,"MEAN_ANOMALY":66.9058,"EPHEMERIS_TYPE":0,"CLASSIFICATION_TYPE":"U","NORAD_CAT_ID":62639,"ELEMENT_SET_NO":999,"REV_AT_EPOCH":6372,"BSTAR":0.0004338875,"MEAN_MOTION_DOT":0.00011494,"MEAN_MOTION_DDOT":0}]
